      2.10          N: GNSS NAV DATA                        RINEX VERSION / TYPE
fic2rin                                 05/11/2021 00:17:15 PGM / RUN BY / DATE
                                                            END OF HEADER
25 21  5 10 22  0  0.0 1.347921788692e-04 7.162270776462e-12 0.000000000000e+00
    4.200000000000e+01 8.990625000000e+01 4.704124517097e-09 9.148529896763e-01
    4.477798938751e-06 9.903704747558e-03 3.518536686897e-06 5.153630958557e+03
    1.656000000000e+05-1.136213541031e-07 9.908587361007e-01 2.793967723846e-08
    9.611368255153e-01 3.106875000000e+02 9.696275698631e-01-8.526783746197e-09
    3.067984936744e-10 1.000000000000e+00 2.157000000000e+03 0.000000000000e+00
    2.400000000000e+00 0.000000000000e+00 5.587935447693e-09 4.200000000000e+01
    1.584000000000e+05 4.000000000000e+00
29 21  5 10 22  0  0.0-3.448626957834e-04-6.593836587854e-12 0.000000000000e+00
    1.240000000000e+02-1.036875000000e+02 4.274463762859e-09-1.385157362187e+00
   -5.355104804039e-06 1.817070413381e-03 5.077570676804e-06 5.153639951706e+03
    1.656000000000e+05-7.450580596924e-09 2.113180206209e+00 1.303851604462e-08
    9.839431946464e-01 2.995312500000e+02 2.129589402815e+00-8.068193215490e-09
   -2.632252501025e-10 1.000000000000e+00 2.157000000000e+03 0.000000000000e+00
    2.400000000000e+00 0.000000000000e+00-9.778887033463e-09 1.240000000000e+02
    1.584000000000e+05 4.000000000000e+00
30 21  5 10 22  0  0.0-4.243669100106e-04-5.002220859751e-12 0.000000000000e+00
    7.400000000000e+01 6.531250000000e+01 4.625192657839e-09 1.811744862194e+00
    3.444030880928e-06 5.188677576371e-03 1.132115721703e-05 5.153717237473e+03
    1.656000000000e+05-5.029141902924e-08-2.855438053599e-02 7.450580596924e-09
    9.374332019128e-01 1.509375000000e+02-2.791437513251e+00-8.018905448170e-09
   -1.771502361613e-10 1.000000000000e+00 2.157000000000e+03 0.000000000000e+00
    2.400000000000e+00 0.000000000000e+00 3.725290298462e-09 7.400000000000e+01
    1.584000000000e+05 4.000000000000e+00
19 21  5 10 22  0  0.0-1.666601747274e-06 5.002220859751e-12 0.000000000000e+00
    1.840000000000e+02-1.027500000000e+02 4.315179744557e-09 9.408638896375e-01
   -5.474314093590e-06 9.251871146262e-03 5.602836608887e-06 5.153631072998e+03
    1.656000000000e+05-1.266598701477e-07 2.145932974379e+00-1.527369022369e-07
    9.806267842303e-01 2.844375000000e+02 1.827940187492e+00-8.139267604595e-09
   -2.553677799502e-10 1.000000000000e+00 2.157000000000e+03 0.000000000000e+00
    2.400000000000e+00 0.000000000000e+00-1.536682248116e-08 1.840000000000e+02
    1.584000000000e+05 4.000000000000e+00
22 21  5 10 22  0  0.0-6.174687296152e-04 9.322320693173e-12 0.000000000000e+00
    1.190000000000e+02 4.421875000000e+01 5.265576475253e-09-2.520300798702e+00
    2.289190888405e-06 7.049145409837e-03 6.597489118576e-06 5.153540031433e+03
    1.656000000000e+05-4.842877388000e-08-2.247506339032e+00 1.080334186554e-07
    9.345527425472e-01 2.366562500000e+02-9.768212047298e-01-8.274987543589e-09
    4.100170788571e-10 1.000000000000e+00 2.157000000000e+03 0.000000000000e+00
    2.400000000000e+00 0.000000000000e+00-1.769512891769e-08 1.190000000000e+02
    1.584000000000e+05 4.000000000000e+00
32 21  5 10 22  0  0.0 2.142554149032e-05-5.684341886081e-13 0.000000000000e+00
    1.100000000000e+02-3.743750000000e+01 4.879131806853e-09-8.264468781326e-01
   -2.043321728706e-06 4.943498992361e-03 6.387010216713e-06 5.153661849976e+03
    1.656000000000e+05 1.117587089539e-07-1.108388123374e+00 8.568167686462e-08
    9.569672427383e-01 2.560625000000e+02-2.372247483801e+00-8.254629552740e-09
   -5.946676274365e-10 1.000000000000e+00 2.157000000000e+03 0.000000000000e+00
    2.400000000000e+00 0.000000000000e+00 4.656612873077e-10 1.100000000000e+02
    1.584000000000e+05 4.000000000000e+00
21 21  5 10 22  0  0.0 1.172232441604e-04 2.728484105319e-12 0.000000000000e+00
    1.090000000000e+02-4.362500000000e+01 4.424112853487e-09-1.378975576554e+00
   -2.203509211540e-06 2.407521207351e-02 1.198984682560e-05 5.153696851730e+03
    1.656000000000e+05-5.681067705154e-07 3.014071088182e+00 1.788139343262e-07
    9.573874805857e-01 1.556250000000e+02-1.141689997845e+00-8.097122991959e-09
    1.796503403006e-10 1.000000000000e+00 2.157000000000e+03 0.000000000000e+00
    2.400000000000e+00 0.000000000000e+00-1.024454832077e-08 1.090000000000e+02
    1.584000000000e+05 4.000000000000e+00
28 21  5 10 22  0  0.0 5.733827129006e-04-6.025402399246e-12 0.000000000000e+00
    6.200000000000e+01 6.440625000000e+01 4.559475634747e-09-9.523180803048e-01
    3.535300493240e-06 1.743790064938e-02 3.132969141006e-06 5.154309282303e+03
    1.656000000000e+05-2.477318048477e-07 1.086503518444e+00 8.195638656616e-08
    9.728816863016e-01 3.332187500000e+02-1.338792852268e+00-8.521426380184e-09
    4.518045337580e-10 1.000000000000e+00 2.157000000000e+03 0.000000000000e+00
    3.400000000000e+00 0.000000000000e+00-1.117587089539e-08 6.200000000000e+01
    1.584000000000e+05 4.000000000000e+00
20 21  5 10 22  0  0.0 5.223196931183e-04-3.410605131648e-13 0.000000000000e+00
    6.000000000000e+01 4.093750000000e+01 5.273076787671e-09 2.661651444283e+00
    2.125278115273e-06 6.052839569747e-03 7.119029760361e-06 5.151708740234e+03
    1.656000000000e+05-1.005828380585e-07-2.293916512476e+00 7.450580596924e-08
    9.378907690409e-01 2.320937500000e+02 3.029811421087e+00-8.317846471693e-09
    4.132314984649e-10 1.000000000000e+00 2.157000000000e+03 0.000000000000e+00
    2.400000000000e+00 0.000000000000e+00-8.381903171539e-09 6.000000000000e+01
    1.584000000000e+05 4.000000000000e+00
17 21  5 10 22  0  0.0 4.403358325362e-04 6.139089236967e-12 0.000000000000e+00
    1.700000000000e+02-9.615625000000e+01 4.294464595974e-09-1.545312457701e+00
   -4.623085260391e-06 1.334590115584e-02 5.098059773445e-06 5.153591989517e+03
    1.656000000000e+05-4.284083843231e-08 2.100749408005e+00 3.483146429062e-07
    9.820826349523e-01 2.916875000000e+02-1.568601559077e+00-8.016405344031e-09
   -2.553677799502e-10 1.000000000000e+00 2.157000000000e+03 0.000000000000e+00
    2.400000000000e+00 0.000000000000e+00-1.117587089539e-08 1.700000000000e+02
    1.584000000000e+05 4.000000000000e+00
14 21  5 10 22  0  0.0 8.748145774007e-05-4.774847184308e-12 0.000000000000e+00
    1.060000000000e+02 7.959375000000e+01 4.768412909252e-09 1.603529673264e+00
    4.082918167114e-06 6.796891102567e-04 2.684071660042e-06 5.153752046585e+03
    1.656000000000e+05 1.117587089539e-08 1.037273074473e+00 3.725290298462e-08
    9.572404895029e-01 3.269375000000e+02 2.640014999999e+00-8.386420756658e-09
    3.421571093598e-10 1.000000000000e+00 2.157000000000e+03 0.000000000000e+00
    2.400000000000e+00 0.000000000000e+00-7.916241884232e-09 3.620000000000e+02
    1.584000000000e+05 4.000000000000e+00
23 21  5 10 22  0  0.0 1.077293418348e-04-3.069544618484e-12 0.000000000000e+00
    2.080000000000e+02 3.268750000000e+01 4.810914679621e-09 2.152554987173e+00
    1.808628439903e-06 1.155847683549e-03 6.420537829399e-06 5.153646240234e+03
    1.656000000000e+05 8.754432201385e-08-2.174872807496e+00 1.117587089539e-08
    9.638194808015e-01 2.570312500000e+02 2.582692601685e+00-8.149982336620e-09
    3.464430021702e-10 1.000000000000e+00 2.157000000000e+03 0.000000000000e+00
    2.400000000000e+00 0.000000000000e+00-8.381903171539e-09 9.760000000000e+02
    1.584000000000e+05 4.000000000000e+00
18 21  5 10 22  0  0.0 3.506750799716e-04-7.958078640513e-13 0.000000000000e+00
    1.970000000000e+02-5.403125000000e+01 4.180174121031e-09 2.821549780119e+00
   -2.693384885788e-06 1.368463970721e-03 1.181848347187e-05 5.153671665192e+03
    1.656000000000e+05-5.960464477539e-08 3.109286015454e+00 4.097819328308e-08
    9.682775554125e-01 1.567812500000e+02 2.917436878751e+00-7.718535793712e-09
    2.467959943295e-10 1.000000000000e+00 2.157000000000e+03 0.000000000000e+00
    2.400000000000e+00 0.000000000000e+00-8.381903171539e-09 7.090000000000e+02
    1.584000000000e+05 4.000000000000e+00
 1 21  5 11  0  0  0.0 6.926977075636e-04-1.080024958355e-11 0.000000000000e+00
    2.400000000000e+01-6.287500000000e+01 3.784800509276e-09-2.687779610295e+00
   -3.423541784286e-06 1.085620443337e-02 1.173838973045e-05 5.153687280655e+03
    1.728000000000e+05 1.415610313416e-07 3.097256320129e+00-2.048909664154e-07
    9.845841195377e-01 1.645000000000e+02 8.396440991184e-01-7.408880038164e-09
    2.635824078367e-10 1.000000000000e+00 2.157000000000e+03 0.000000000000e+00
    2.400000000000e+00 0.000000000000e+00 5.122274160385e-09 2.400000000000e+01
    1.656000000000e+05 4.000000000000e+00
 2 21  5 11  0  0  0.0-6.031556986272e-04-3.183231456205e-12 0.000000000000e+00
    8.800000000000e+01-5.084375000000e+01 4.212675474843e-09-2.417728081062e+00
   -2.508983016014e-06 2.019579173066e-02 1.141242682934e-05 5.153674625397e+03
    1.728000000000e+05 2.160668373108e-07 3.013833365457e+00 1.695007085800e-07
    9.632490948941e-01 1.543437500000e+02-1.519557024198e+00-7.430666659950e-09
    2.485817830005e-10 1.000000000000e+00 2.157000000000e+03 0.000000000000e+00
    2.400000000000e+00 0.000000000000e+00-1.769512891769e-08 8.800000000000e+01
    1.656000000000e+05 4.000000000000e+00
 6 21  5 11  0  0  0.0 1.457054167986e-05 3.637978807092e-12 0.000000000000e+00
    1.400000000000e+01-5.081250000000e+01 3.848374585963e-09-2.463553992821e+00
   -2.576038241386e-06 2.226415555924e-03 1.170672476292e-05 5.153765293121e+03
    1.728000000000e+05-3.539025783539e-08 3.089008458218e+00 1.862645149231e-08
    9.840442164543e-01 1.669062500000e+02-9.725337780498e-01-7.500669575852e-09
    2.192948487964e-10 1.000000000000e+00 2.157000000000e+03 0.000000000000e+00
    2.400000000000e+00 0.000000000000e+00 4.190951585770e-09 1.400000000000e+01
    1.656000000000e+05 4.000000000000e+00
